[{"OBJECT_NAME":"SDS-4","OBJECT_ID":"2012-025C","EPOCH":"2026-03-09T22:00:42.096096","MEAN_MOTION":14.75631591,"ECCENTRICITY":0.00056029,"INCLINATION":98.1333,"RA_OF_ASC_NODE":164.2362,"ARG_OF_PERICENTER":252.4969,"MEAN_ANOMALY":107.5627,"EPHEMERIS_TYPE":0,"CLASSIFICATION_TYPE":"U","NORAD_CAT_ID":38339,"ELEMENT_SET_NO":999,"REV_AT_EPOCH":74134,"BSTAR":0.00023374761,"MEAN_MOTION_DOT":1.543e-5,"MEAN_MOTION_DDOT":0},{"OBJECT_NAME":"CZ-6A DEB","OBJECT_ID":"2022-151SJ","EPOCH":"2026-03-09T07:20:56.719392","MEAN_MOTION":14.61512797,"ECCENTRICITY":0.00708062,"INCLINATION":99.1247,"RA_OF_ASC_NODE":191.8079,"ARG_OF_PERICENTER":296.376,"MEAN_ANOMALY":63.0181,"EPHEMERIS_TYPE":0,"CLASSIFICATION_TYPE":"U","NORAD_CAT_ID":54945,"ELEMENT_SET_NO":999,"REV_AT_EPOCH":10351,"BSTAR":0.0019223113,"MEAN_MOTION_DOT":9.833e-5,"MEAN_MOTION_DDOT":0}]
